ONEWEB-0018             
1 45434U 20020L   25130.44727680  .00000564  00000+0  15554-2 0  9999
2 45434  87.8811 101.3389 0001946  85.8584 274.2767 13.11416181249847
ONEWEB-0083             
1 45435U 20020M   25130.43709068  .00000543  00000+0  14951-2 0  9996
2 45435  87.8813 101.3248 0002054  86.7534 273.3829 13.11416384249888
ONEWEB-0095             
1 45436U 20020N   25130.42875226  .00000212  00000+0  56246-3 0  9993
2 45436  87.8812 101.3534 0002745  90.3018 269.8424 13.11417683249885
ONEWEB-0092             
1 45437U 20020P   25130.47693531 -.00000463  00000+0 -13417-2 0  9998
2 45437  87.8810 101.3312 0002291  85.5033 274.6357 13.11414319250005
ONEWEB-0085             
1 45438U 20020Q   25130.43023730  .00000312  00000+0  84569-3 0  9991
2 45438  87.8814 101.3516 0001995  83.0976 277.0379 13.11419604249882
ONEWEB-0096             
1 45439U 20020R   25130.43878725  .00000548  00000+0  15089-2 0  9995
2 45439  87.8813 101.3161 0001912  80.5991 279.5353 13.11418860249877
ONEWEB-0037             
1 45440U 20020S   25130.41966612  .00011523  00000+0  32350-1 0  9992
2 45440  87.8809 101.2841 0002182  82.1151 278.0224 13.11599095249909
ONEWEB-0042             
1 45441U 20020T   25130.42847145  .00000208  00000+0  55006-3 0  9996
2 45441  87.8813 101.3288 0002035  81.3696 278.7662 13.11418068249872
